ORBCOMM FM33 [-]        
1 25983U 99065D   23247.35670712  .00001215  00000+0  45626-3 0  9999
2 25983  45.0285 209.0859 0009119  14.7405 145.4532 14.36681212242227
ORBCOMM FM36 [-]        
1 25984U 99065E   23247.48297373  .00000835  00000+0  34273-3 0  9995
2 25984  45.0404 289.7041 0005606 265.1022  94.9186 14.34568808240733
ORBCOMM FM35 [+]        
1 25985U 99065F   23247.53495309  .00000703  00000+0  29795-3 0  9998
2 25985  45.0403 291.4534 0002482 336.0435  24.0297 14.34282901241145
ORBCOMM FM34 [-]        
1 25986U 99065G   23247.49747771  .00000742  00000+0  31220-3 0  9996
2 25986  45.0399 292.0882 0004864 296.9066  63.1284 14.34223610241257
ORBCOMM FM38 [-]        
1 33060U 08031A   23247.49568450  .00001821  00000+0  29166-3 0  9991
2 33060  48.4409 166.8450 0005309 129.3209 230.8175 14.75934527818321
ORBCOMM FM41 [-]        
1 33061U 08031B   23247.53084017  .00001873  00000+0  30070-3 0  9992
2 33061  48.4446 172.7506 0004393 114.9334  55.3736 14.75708882817833
ORBCOMM FM29 [-]        
1 33062U 08031C   23247.57010046  .00001921  00000+0  30857-3 0  9995
2 33062  48.4398 180.5253 0006276 112.8861  57.5749 14.75578888817750
ORBCOMM FM39 [-]        
1 33063U 08031D   23247.55484248  .00001744  00000+0  28819-3 0  9991
2 33063  48.4415 199.4182 0007199  88.2021 271.9716 14.74759318817473
